start=new Date('2023-03-18T00:00:00.000Z').valueOf();
sats=[{"RA_OF_ASC_NODE":"92.8835","ARG_OF_PERICENTER":"106.5591","PERIAPSIS":"538.822","SEMIMAJOR_AXIS":"6917.897","ELEMENT_SET_NO":"999","EPOCH":"2023-03-17T17:40:12.035424","OBJECT_NAME":"STARLINK-4683","DECAY_DATE":null,"COUNTRY_CODE":"US","EPHEMERIS_TYPE":"0","SITE":"AFETR","TLE_LINE1":"1 53712U 22107N   23076.73625041  .00014050  00000-0  89921-3 0  9998","OBJECT_ID":"2022-107N","REV_AT_EPOCH":"3025","MEAN_ANOMALY":"253.5550","APOAPSIS":"540.702","RCS_SIZE":"LARGE","NORAD_CAT_ID":"53712","TLE_LINE2":"2 53712  53.2173  92.8835 0001359 106.5591 253.5550 15.08834655 30251","INCLINATION":"53.2173","MEAN_MOTION_DOT":"0.00014050","REF_FRAME":"TEME","MEAN_ELEMENT_THEORY":"SGP4","MEAN_MOTION_DDOT":"0.0000000000000","TIME_SYSTEM":"UTC","CLASSIFICATION_TYPE":"U","MEAN_MOTION":"15.08834655","LAUNCH_DATE":"2022-09-05","GP_ID":"228357670","BSTAR":"0.00089921000000","ECCENTRICITY":"0.00013590","PERIOD":"95.438","CENTER_NAME":"EARTH","FILE":"3863544","OBJECT_TYPE":"PAYLOAD"},{"REV_AT_EPOCH":"3013","OBJECT_ID":"2022-107P","TLE_LINE1":"1 53713U 22107P   23076.52688475  .00013101  00000-0  83996-3 0  9998","SITE":"AFETR","EPHEMERIS_TYPE":"0","DECAY_DATE":null,"COUNTRY_CODE":"US","OBJECT_NAME":"STARLINK-4698","EPOCH":"2023-03-17T12:38:42.842400","ELEMENT_SET_NO":"999","SEMIMAJOR_AXIS":"6917.916","PERIAPSIS":"538.736","ARG_OF_PERICENTER":"99.5161","RA_OF_ASC_NODE":"98.6726","OBJECT_TYPE":"PAYLOAD","FILE":"3863278","CENTER_NAME":"EARTH","PERIOD":"95.438","ECCENTRICITY":"0.00015100","BSTAR":"0.00083996000000","LAUNCH_DATE":"2022-09-05","GP_ID":"228327372","MEAN_MOTION":"15.08828428","CLASSIFICATION_TYPE":"U","TIME_SYSTEM":"UTC","MEAN_MOTION_DDOT":"0.0000000000000","MEAN_ELEMENT_THEORY":"SGP4","REF_FRAME":"TEME","MEAN_MOTION_DOT":"0.00013101","INCLINATION":"53.2170","NORAD_CAT_ID":"53713","TLE_LINE2":"2 53713  53.2170  98.6726 0001510  99.5161 260.6002 15.08828428 30134","RCS_SIZE":"LARGE","APOAPSIS":"540.825","MEAN_ANOMALY":"260.6002"},{"OBJECT_NAME":"STARLINK-4688","EPHEMERIS_TYPE":"0","DECAY_DATE":null,"COUNTRY_CODE":"US","REV_AT_EPOCH":"3044","OBJECT_ID":"2022-107Q","SITE":"AFETR","TLE_LINE1":"1 53714U 22107Q   23076.27345050 -.00001012  00000-0 -45537-4 0  9990","PERIAPSIS":"538.955","ARG_OF_PERICENTER":"80.5946","RA_OF_ASC_NODE":"74.9897","EPOCH":"2023-03-17T06:33:46.123200","SEMIMAJOR_AXIS":"6917.907","ELEMENT_SET_NO":"999","BSTAR":"-0.00004553700000","CENTER_NAME":"EARTH","PERIOD":"95.438","ECCENTRICITY":"0.00011810","CLASSIFICATION_TYPE":"U","TIME_SYSTEM":"UTC","MEAN_MOTION":"15.08831453","GP_ID":"228326120","LAUNCH_DATE":"2022-09-05","OBJECT_TYPE":"PAYLOAD","FILE":"3863278","RCS_SIZE":"LARGE","MEAN_ANOMALY":"279.5179","APOAPSIS":"540.589","REF_FRAME":"TEME","MEAN_MOTION_DOT":"-0.00001012","MEAN_ELEMENT_THEORY":"SGP4","MEAN_MOTION_DDOT":"0.0000000000000","TLE_LINE2":"2 53714  53.2169  74.9897 0001181  80.5946 279.5179 15.08831453 30444","NORAD_CAT_ID":"53714","INCLINATION":"53.2169"},{"RCS_SIZE":"LARGE","MEAN_ANOMALY":"266.0679","APOAPSIS":"540.641","REF_FRAME":"TEME","MEAN_MOTION_DOT":"0.00013899","MEAN_MOTION_DDOT":"0.0000000000000","MEAN_ELEMENT_THEORY":"SGP4","NORAD_CAT_ID":"53715","TLE_LINE2":"2 53715  53.2168  98.7391 0001282  94.0460 266.0679 15.08837124 30144","INCLINATION":"53.2168","BSTAR":"0.00088971000000","CENTER_NAME":"EARTH","PERIOD":"95.438","ECCENTRICITY":"0.00012820","CLASSIFICATION_TYPE":"U","TIME_SYSTEM":"UTC","MEAN_MOTION":"15.08837124","LAUNCH_DATE":"2022-09-05","GP_ID":"228326370","OBJECT_TYPE":"PAYLOAD","FILE":"3863278","PERIAPSIS":"538.867","ARG_OF_PERICENTER":"94.0460","RA_OF_ASC_NODE":"98.7391","EPOCH":"2023-03-17T12:54:38.361600","SEMIMAJOR_AXIS":"6917.889","ELEMENT_SET_NO":"999","OBJECT_NAME":"STARLINK-4686","COUNTRY_CODE":"US","DECAY_DATE":null,"EPHEMERIS_TYPE":"0","REV_AT_EPOCH":"3014","OBJECT_ID":"2022-107R","SITE":"AFETR","TLE_LINE1":"1 53715U 22107R   23076.53794400  .00013899  00000-0  88971-3 0  9999"},{"RCS_SIZE":"LARGE","APOAPSIS":"540.884","MEAN_ANOMALY":"272.1126","MEAN_ELEMENT_THEORY":"SGP4","MEAN_MOTION_DDOT":"0.0000000000000","REF_FRAME":"TEME","MEAN_MOTION_DOT":"0.00007445","INCLINATION":"53.2170","TLE_LINE2":"2 53716  53.2170  98.7171 0001608  88.0050 272.1126 15.08831347 30139","NORAD_CAT_ID":"53716","CENTER_NAME":"EARTH","ECCENTRICITY":"0.00016080","PERIOD":"95.438","BSTAR":"0.00048547000000","GP_ID":"228327622","LAUNCH_DATE":"2022-09-05","MEAN_MOTION":"15.08831347","CLASSIFICATION_TYPE":"U","TIME_SYSTEM":"UTC","OBJECT_TYPE":"PAYLOAD","FILE":"3863278","PERIAPSIS":"538.659","ARG_OF_PERICENTER":"88.0050","RA_OF_ASC_NODE":"98.7171","EPOCH":"2023-03-17T12:49:19.743456","ELEMENT_SET_NO":"999","SEMIMAJOR_AXIS":"6917.907","EPHEMERIS_TYPE":"0","DECAY_DATE":null,"COUNTRY_CODE":"US","OBJECT_NAME":"STARLINK-4699","REV_AT_EPOCH":"3013","OBJECT_ID":"2022-107S","TLE_LINE1":"1 53716U 22107S   23076.53425629  .00007445  00000-0  48547-3 0  9999","SITE":"AFETR"},{"RCS_SIZE":"LARGE","MEAN_ANOMALY":"280.4318","APOAPSIS":"540.738","MEAN_MOTION_DOT":"0.00009988","REF_FRAME":"TEME","MEAN_ELEMENT_THEORY":"SGP4","MEAN_MOTION_DDOT":"0.0000000000000","TLE_LINE2":"2 53718  53.2166  97.5065 0001460  79.6838 280.4318 15.08845789 30175","NORAD_CAT_ID":"53718","INCLINATION":"53.2166","BSTAR":"0.00064465000000","PERIOD":"95.437","ECCENTRICITY":"0.00014600","CENTER_NAME":"EARTH","CLASSIFICATION_TYPE":"U","TIME_SYSTEM":"UTC","MEAN_MOTION":"15.08845789","GP_ID":"228357921","LAUNCH_DATE":"2022-09-05","OBJECT_TYPE":"PAYLOAD","FILE":"3863544","PERIAPSIS":"538.718","RA_OF_ASC_NODE":"97.5065","ARG_OF_PERICENTER":"79.6838","EPOCH":"2023-03-17T19:05:33.881856","SEMIMAJOR_AXIS":"6917.863","ELEMENT_SET_NO":"999","OBJECT_NAME":"STARLINK-4695","DECAY_DATE":null,"EPHEMERIS_TYPE":"0","COUNTRY_CODE":"US","OBJECT_ID":"2022-107U","REV_AT_EPOCH":"3017","SITE":"AFETR","TLE_LINE1":"1 53718U 22107U   23076.79553104  .00009988  00000-0  64465-3 0  9990"},{"BSTAR":"0.00387240000000","ECCENTRICITY":"0.00014650","PERIOD":"95.490","CENTER_NAME":"EARTH","TIME_SYSTEM":"UTC","CLASSIFICATION_TYPE":"U","MEAN_MOTION":"15.08017932","GP_ID":"228359172","LAUNCH_DATE":"2022-09-05","OBJECT_TYPE":"PAYLOAD","FILE":"3863544","RCS_SIZE":"LARGE","MEAN_ANOMALY":"276.4406","APOAPSIS":"543.273","MEAN_MOTION_DOT":"0.00060494","REF_FRAME":"TEME","MEAN_ELEMENT_THEORY":"SGP4","MEAN_MOTION_DDOT":"0.0000000000000","NORAD_CAT_ID":"53719","TLE_LINE2":"2 53719  53.2164  66.8494 0001465  92.2494 276.4406 15.08017932  1300","INCLINATION":"53.2164","OBJECT_NAME":"STARLINK-4644","DECAY_DATE":null,"EPHEMERIS_TYPE":"0","COUNTRY_CODE":"US","OBJECT_ID":"2022-107V","REV_AT_EPOCH":"130","SITE":"AFETR","TLE_LINE1":"1 53719U 22107V   23076.91667824  .00060494  00000-0  38724-2 0  9997","PERIAPSIS":"541.245","RA_OF_ASC_NODE":"66.8494","ARG_OF_PERICENTER":"92.2494","EPOCH":"2023-03-17T22:00:00.999936","SEMIMAJOR_AXIS":"6920.394","ELEMENT_SET_NO":"999"},{"OBJECT_TYPE":"PAYLOAD","FILE":"3863278","PERIOD":"95.439","ECCENTRICITY":"0.00011100","CENTER_NAME":"EARTH","BSTAR":"-0.00018218000000","GP_ID":"228326871","LAUNCH_DATE":"2022-09-05","CLASSIFICATION_TYPE":"U","MEAN_MOTION":"15.08821246","TIME_SYSTEM":"UTC","MEAN_ELEMENT_THEORY":"SGP4","MEAN_MOTION_DDOT":"0.0000000000000","MEAN_MOTION_DOT":"-0.00003184","REF_FRAME":"TEME","INCLINATION":"53.2172","TLE_LINE2":"2 53720  53.2172  99.6523 0001110  87.0849 273.0271 15.08821246 30116","NORAD_CAT_ID":"53720","RCS_SIZE":"LARGE","APOAPSIS":"540.571","MEAN_ANOMALY":"273.0271","OBJECT_ID":"2022-107W","REV_AT_EPOCH":"3011","TLE_LINE1":"1 53720U 22107W   23076.34291950 -.00003184  00000-0 -18218-3 0  9991","SITE":"AFETR","DECAY_DATE":null,"COUNTRY_CODE":"US","EPHEMERIS_TYPE":"0","OBJECT_NAME":"STARLINK-4642","EPOCH":"2023-03-17T08:13:48.244800","ELEMENT_SET_NO":"999","SEMIMAJOR_AXIS":"6917.938","PERIAPSIS":"539.035","RA_OF_ASC_NODE":"99.6523","ARG_OF_PERICENTER":"87.0849"},{"OBJECT_NAME":"STARLINK-4707","COUNTRY_CODE":"US","DECAY_DATE":null,"EPHEMERIS_TYPE":"0","SITE":"AFETR","TLE_LINE1":"1 53721U 22107X   23076.74771652  .00013232  00000-0  84793-3 0  9992","OBJECT_ID":"2022-107X","REV_AT_EPOCH":"3017","RA_OF_ASC_NODE":"97.9204","ARG_OF_PERICENTER":"84.5272","PERIAPSIS":"538.963","SEMIMAJOR_AXIS":"6917.887","ELEMENT_SET_NO":"999","EPOCH":"2023-03-17T17:56:42.707328","TIME_SYSTEM":"UTC","CLASSIFICATION_TYPE":"U","MEAN_MOTION":"15.08837943","LAUNCH_DATE":"2022-09-05","GP_ID":"228357671","BSTAR":"0.00084793000000","ECCENTRICITY":"0.00011400","PERIOD":"95.438","CENTER_NAME":"EARTH","FILE":"3863544","OBJECT_TYPE":"PAYLOAD","MEAN_ANOMALY":"275.5850","APOAPSIS":"540.540","RCS_SIZE":"LARGE","TLE_LINE2":"2 53721  53.2178  97.9204 0001140  84.5272 275.5850 15.08837943 30172","NORAD_CAT_ID":"53721","INCLINATION":"53.2178","MEAN_MOTION_DOT":"0.00013232","REF_FRAME":"TEME","MEAN_MOTION_DDOT":"0.0000000000000","MEAN_ELEMENT_THEORY":"SGP4"},{"FILE":"3863544","OBJECT_TYPE":"PAYLOAD","MEAN_MOTION":"15.08836801","CLASSIFICATION_TYPE":"U","TIME_SYSTEM":"UTC","LAUNCH_DATE":"2022-09-05","GP_ID":"228358421","BSTAR":"0.00057882000000","CENTER_NAME":"EARTH","ECCENTRICITY":"0.00011780","PERIOD":"95.438","NORAD_CAT_ID":"53722","TLE_LINE2":"2 53722  53.2170  97.9623 0001178  96.8183 263.2943 15.08836801 30166","INCLINATION":"53.2170","REF_FRAME":"TEME","MEAN_MOTION_DOT":"0.00008935","MEAN_MOTION_DDOT":"0.0000000000000","MEAN_ELEMENT_THEORY":"SGP4","MEAN_ANOMALY":"263.2943","APOAPSIS":"540.570","RCS_SIZE":"LARGE","SITE":"AFETR","TLE_LINE1":"1 53722U 22107Y   23076.75508460  .00008935  00000-0  57882-3 0  9992","REV_AT_EPOCH":"3016","OBJECT_ID":"2022-107Y","OBJECT_NAME":"STARLINK-4700","EPHEMERIS_TYPE":"0","DECAY_DATE":null,"COUNTRY_CODE":"US","SEMIMAJOR_AXIS":"6917.890","ELEMENT_SET_NO":"999","EPOCH":"2023-03-17T18:07:19.309440","ARG_OF_PERICENTER":"96.8183","RA_OF_ASC_NODE":"97.9623","PERIAPSIS":"538.940"}];
